{"type":"FeatureCollection","crs":{"type":"name","properties":{"name":"EPSG:4326"}},"features":[{"type":"Feature","id":1,"geometry":{"type":"Point","coordinates":[-103.423938416862,50.7426190225629]},"properties":{"FID":1,"NoteType":0,"UNIQUE_ID":"MSC2025A1","Name":"Abernethy","created_us":"NTW148","created_da":1755561600000,"last_edite":"NTW148","last_edi_1":1756339200000}},{"type":"Feature","id":2,"geometry":{"type":"Point","coordinates":[-103.82703703221,52.4483759068243]},"properties":{"FID":2,"NoteType":0,"UNIQUE_ID":"MSC2025A2","Name":"Archerwill","created_us":"NTW148","created_da":1755561600000,"last_edite":"NTW148","last_edi_1":1756339200000}},{"type":"Feature","id":3,"geometry":{"type":"Point","coordinates":[-103.560578758923,50.8101503910072]},"properties":{"FID":3,"NoteType":0,"UNIQUE_ID":"MSC2025A3","Name":"Balcarres","created_us":"NTW148","created_da":1755561600000,"last_edite":"NTW148","last_edi_1":1756339200000}},{"type":"Feature","id":4,"geometry":{"type":"Point","coordinates":[-107.998080000438,52.4660039999615]},"properties":{"FID":4,"NoteType":0,"UNIQUE_ID":"MSC2025A4","Name":"Baljennie","created_us":"NTW148","created_da":1755561600000,"last_edite":"NTW148","last_edi_1":1756252800000}},{"type":"Feature","id":5,"geometry":{"type":"Point","coordinates":[-106.117220557874,52.7527745512135]},"properties":{"FID":5,"NoteType":0,"UNIQUE_ID":"MSC2025A6","Name":"Batoche","created_us":"NTW148","created_da":1755561600000,"last_edite":"NTW148","last_edi_1":1756252800000}},{"type":"Feature","id":6,"geometry":{"type":"Point","coordinates":[-108.313794804284,52.7323857740142]},"properties":{"FID":6,"NoteType":0,"UNIQUE_ID":"MSC2025A7","Name":"Battleford","created_us":"NTW148","created_da":1755561600000,"last_edite":"NTW148","last_edi_1":1756339200000}},{"type":"Feature","id":7,"geometry":{"type":"Point","coordinates":[-107.0298218865,53.8301448832372]},"properties":{"FID":7,"NoteType":0,"UNIQUE_ID":"MSC2025A8","Name":"Big River","created_us":"NTW148","created_da":1755561600000,"last_edite":"NTW148","last_edi_1":1756339200000}},{"type":"Feature","id":8,"geometry":{"type":"Point","coordinates":[-105.441465000029,52.9743840000241]},"properties":{"FID":8,"NoteType":0,"UNIQUE_ID":"MSC2025A9","Name":"Birch Hills","created_us":"NTW148","created_da":1755561600000,"last_edite":"NTW148","last_edi_1":1756252800000}},{"type":"Feature","id":9,"geometry":{"type":"Point","coordinates":[-108.765640097876,52.9720584620281]},"properties":{"FID":9,"NoteType":0,"UNIQUE_ID":"MSC2025A10","Name":"Bresaylor","created_us":"NTW148","created_da":1755561600000,"last_edite":"NTW148","last_edi_1":1756339200000}},{"type":"Feature","id":10,"geometry":{"type":"Point","coordinates":[-108.209915884091,52.3766760213905]},"properties":{"FID":10,"NoteType":0,"UNIQUE_ID":"MSC2025A11","Name":"Cando","created_us":"NTW148","created_da":1755561600000,"last_edite":"NTW148","last_edi_1":1756252800000}},{"type":"Feature","id":11,"geometry":{"type":"Point","coordinates":[-107.744370981481,53.7525397847156]},"properties":{"FID":11,"NoteType":0,"UNIQUE_ID":"MSC2025A14","Name":"Chitek Lake","created_us":"NTW148","created_da":1755561600000,"last_edite":"NTW148","last_edi_1":1756339200000}},{"type":"Feature","id":12,"geometry":{"type":"Point","coordinates":[-106.222623687338,52.809915457471]},"properties":{"FID":12,"NoteType":0,"UNIQUE_ID":"MSC2025A23","Name":"Duck Lake","created_us":"NTW148","created_da":1755561600000,"last_edite":"NTW148","last_edi_1":1756339200000}},{"type":"Feature","id":13,"geometry":{"type":"Point","coordinates":[-102.99061740761,49.1306912842485]},"properties":{"FID":13,"NoteType":0,"UNIQUE_ID":"MSC2025A25","Name":"Estevan","created_us":"NTW148","created_da":1755561600000,"last_edite":"NTW148","last_edi_1":1756339200000}},{"type":"Feature","id":14,"geometry":{"type":"Point","coordinates":[-106.132699221922,52.6063701329366]},"properties":{"FID":14,"NoteType":0,"UNIQUE_ID":"MSC2025A26","Name":"Fish Creek","created_us":"NTW148","created_da":1755561600000,"last_edite":"NTW148","last_edi_1":1756339200000}},{"type":"Feature","id":15,"geometry":{"type":"Point","coordinates":[-103.785072511292,50.7646470071099]},"properties":{"FID":15,"NoteType":0,"UNIQUE_ID":"MSC2025A34","Name":"Fort Qu'Appelle","created_us":"NTW148","created_da":1755561600000,"last_edite":"NTW148","last_edi_1":1756339200000}},{"type":"Feature","id":16,"geometry":{"type":"Point","coordinates":[-104.974059999977,53.1600230002607]},"properties":{"FID":16,"NoteType":0,"UNIQUE_ID":"MSC2025A38","Name":"Glen Mary","created_us":"NTW148","created_da":1755561600000,"last_edite":"NTW148","last_edi_1":1756252800000}},{"type":"Feature","id":17,"geometry":{"type":"Point","coordinates":[-107.788617794549,54.285922897958]},"properties":{"FID":17,"NoteType":0,"UNIQUE_ID":"MSC2025A40","Name":"Green Lake","created_us":"NTW148","created_da":1755561600000,"last_edite":"NTW148","last_edi_1":1756339200000}},{"type":"Feature","id":18,"geometry":{"type":"Point","coordinates":[-105.707643983501,53.0232425002886]},"properties":{"FID":18,"NoteType":0,"UNIQUE_ID":"MSC2025A43","Name":"Halcro","created_us":"NTW148","created_da":1755561600000,"last_edite":"NTW148","last_edi_1":1756252800000}},{"type":"Feature","id":19,"geometry":{"type":"Point","coordinates":[-108.406254609181,53.0636398875366]},"properties":{"FID":19,"NoteType":0,"UNIQUE_ID":"MSC2025A44","Name":"Jackfish Lake","created_us":"NTW148","created_da":1755561600000,"last_edite":"NTW148","last_edi_1":1756339200000}},{"type":"Feature","id":20,"geometry":{"type":"Point","coordinates":[-107.880762378817,49.927390711511]},"properties":{"FID":20,"NoteType":0,"UNIQUE_ID":"MSC2025A47","Name":"Lac Pelletier","created_us":"NTW148","created_da":1755561600000,"last_edite":"NTW148","last_edi_1":1756252800000}},{"type":"Feature","id":21,"geometry":{"type":"Point","coordinates":[-104.985802136872,50.7885883358676]},"properties":{"FID":21,"NoteType":0,"UNIQUE_ID":"MSC2025A50","Name":"Last Mountain Lake","created_us":"NTW148","created_da":1755561600000,"last_edite":"NTW148","last_edi_1":1756252800000}},{"type":"Feature","id":22,"geometry":{"type":"Point","coordinates":[-103.707462152689,50.7567634506912]},"properties":{"FID":22,"NoteType":0,"UNIQUE_ID":"MSC2025A51","Name":"Lebret","created_us":"NTW148","created_da":1755561600000,"last_edite":"NTW148","last_edi_1":1756339200000}},{"type":"Feature","id":23,"geometry":{"type":"Point","coordinates":[-103.980819674208,51.3144717498081]},"properties":{"FID":23,"NoteType":0,"UNIQUE_ID":"MSC2025A56","Name":"Lestock","created_us":"NTW148","created_da":1755561600000,"last_edite":"NTW148","last_edi_1":1756339200000}},{"type":"Feature","id":24,"geometry":{"type":"Point","coordinates":[-108.427433430457,54.1289758281475]},"properties":{"FID":24,"NoteType":0,"UNIQUE_ID":"MSC2025A57","Name":"Meadow Lake","created_us":"NTW148","created_da":1755561600000,"last_edite":"NTW148","last_edi_1":1756339200000}},{"type":"Feature","id":25,"geometry":{"type":"Point","coordinates":[-106.846654756875,53.287873906256]},"properties":{"FID":25,"NoteType":0,"UNIQUE_ID":"MSC2025A58","Name":"Mont Nebo","created_us":"NTW148","created_da":1755561600000,"last_edite":"NTW148","last_edi_1":1756339200000}},{"type":"Feature","id":26,"geometry":{"type":"Point","coordinates":[-105.534486339115,50.3939922376957]},"properties":{"FID":26,"NoteType":0,"UNIQUE_ID":"MSC2025A60","Name":"Moose Jaw","created_us":"NTW148","created_da":1755561600000,"last_edite":"NTW148","last_edi_1":1756339200000}},{"type":"Feature","id":27,"geometry":{"type":"Point","coordinates":[-106.803431563293,52.9811981327119]},"properties":{"FID":27,"NoteType":0,"UNIQUE_ID":"MSC2025A62","Name":"Muskeg Lake","created_us":"NTW148","created_da":1755561600000,"last_edite":"NTW148","last_edi_1":1756252800000}},{"type":"Feature","id":28,"geometry":{"type":"Point","coordinates":[-105.794053941285,53.1976972918693]},"properties":{"FID":28,"NoteType":0,"UNIQUE_ID":"MSC2025A68","Name":"Prince Albert","created_us":"NTW148","created_da":1755561600000,"last_edite":"NTW148","last_edi_1":1756339200000}},{"type":"Feature","id":29,"geometry":{"type":"Point","coordinates":[-104.618527222042,50.4426093903193]},"properties":{"FID":29,"NoteType":0,"UNIQUE_ID":"MSC2025A70","Name":"Regina","created_us":"NTW148","created_da":1755561600000,"last_edite":"NTW148","last_edi_1":1756339200000}},{"type":"Feature","id":30,"geometry":{"type":"Point","coordinates":[-106.78367983622,51.745837221364]},"properties":{"FID":30,"NoteType":0,"UNIQUE_ID":"MSC2025A73","Name":"Round Prairie","created_us":"NTW148","created_da":1755561600000,"last_edite":"NTW148","last_edi_1":1756252800000}},{"type":"Feature","id":31,"geometry":{"type":"Point","coordinates":[-106.67648426593,52.1174325645793]},"properties":{"FID":31,"NoteType":0,"UNIQUE_ID":"MSC2025A77","Name":"Saskatoon","created_us":"NTW148","created_da":1755561600000,"last_edite":"NTW148","last_edi_1":1756339200000}},{"type":"Feature","id":32,"geometry":{"type":"Point","coordinates":[-106.085172755871,52.8330303496842]},"properties":{"FID":32,"NoteType":0,"UNIQUE_ID":"MSC2025A78","Name":"St. Laurent de Grandin","created_us":"NTW148","created_da":1755561600000,"last_edite":"NTW148","last_edi_1":1756252800000}},{"type":"Feature","id":33,"geometry":{"type":"Point","coordinates":[-105.8194905147,52.9199841499271]},"properties":{"FID":33,"NoteType":0,"UNIQUE_ID":"MSC2025A74","Name":"Saint Louis de Langevin","created_us":"NTW148","created_da":1755561600000,"last_edite":"NTW148","last_edi_1":1756339200000}},{"type":"Feature","id":34,"geometry":{"type":"Point","coordinates":[-103.638682705842,51.1486757763405]},"properties":{"FID":34,"NoteType":0,"UNIQUE_ID":"MSC2025A79","Name":"Ste. Delphine","created_us":"NTW148","created_da":1755561600000,"last_edite":"NTW148","last_edi_1":1756339200000}},{"type":"Feature","id":35,"geometry":{"type":"Point","coordinates":[-107.785987364802,50.2948206940842]},"properties":{"FID":35,"NoteType":0,"UNIQUE_ID":"MSC2025A80","Name":"Swift Current","created_us":"NTW148","created_da":1755561600000,"last_edite":"NTW148","last_edi_1":1756339200000}},{"type":"Feature","id":36,"geometry":{"type":"Point","coordinates":[-101.544975947582,50.4403104378826]},"properties":{"FID":36,"NoteType":0,"UNIQUE_ID":"MSC2025A84","Name":"Welwyn","created_us":"NTW148","created_da":1755561600000,"last_edite":"NTW148","last_edi_1":1756339200000}},{"type":"Feature","id":37,"geometry":{"type":"Point","coordinates":[-105.637598140276,49.3886672871413]},"properties":{"FID":37,"NoteType":0,"UNIQUE_ID":"MSC2025A85","Name":"Willow Bunch","created_us":"NTW148","created_da":1755561600000,"last_edite":"NTW148","last_edi_1":1756252800000}},{"type":"Feature","id":38,"geometry":{"type":"Point","coordinates":[-107.732753360965,49.2399643373024]},"properties":{"FID":38,"NoteType":0,"UNIQUE_ID":"MSC2025A83","Name":"Val Marie","created_us":"NTW148","created_da":1755561600000,"last_edite":"NTW148","last_edi_1":1756339200000}},{"type":"Feature","id":39,"geometry":{"type":"Point","coordinates":[-103.60420401507,50.6557091364019]},"properties":{"FID":39,"NoteType":0,"UNIQUE_ID":"MSC2025A45","Name":"Katepwa Lake","created_us":"NTW148","created_da":1756252800000,"last_edite":"NTW148","last_edi_1":1756339200000}},{"type":"Feature","id":40,"geometry":{"type":"Point","coordinates":[-106.880031571425,53.2364572234496]},"properties":{"FID":40,"NoteType":0,"UNIQUE_ID":"MSC2025A67","Name":"Pratt's Lake","created_us":"NTW148","created_da":1756252800000,"last_edite":"NTW148","last_edi_1":1756252800000}},{"type":"Feature","id":41,"geometry":{"type":"Point","coordinates":[-107.941103678908,50.6485984014658]},"properties":{"FID":41,"NoteType":0,"UNIQUE_ID":"MSC2025A75","Name":"Saskatchewan Landing","created_us":"NTW148","created_da":1756252800000,"last_edite":"NTW148","last_edi_1":1756252800000}},{"type":"Feature","id":42,"geometry":{"type":"Point","coordinates":[-104.179174190947,51.406508755072]},"properties":{"FID":42,"NoteType":0,"UNIQUE_ID":"MSC2025A82","Name":"Touchwood","created_us":"NTW148","created_da":1756252800000,"last_edite":"NTW148","last_edi_1":1756252800000}}]}