{"type":"FeatureCollection","crs":{"type":"name","properties":{"name":"EPSG:4326"}},"features":[{"type":"Feature","id":1,"geometry":{"type":"Polygon","coordinates":[[[-104.127715796588,51.2989963674518],[-104.166063188233,51.2989817403263],[-104.166225558979,51.3139264337911],[-104.199454354303,51.3138347024541],[-104.199166928851,51.3430439967667],[-104.128851795575,51.3431319400471],[-104.127715796588,51.2989963674518]]]},"properties":{"FID":1,"Id":0,"UNIQUE_ID":"PRQA85","RSRVE_NO":"85","RSRVE_NAME":"Muskowekwan","YEAR":"1900","Notes":"Survey boundaries incorrect at initial survey in 1884, corrected in 1900.","Shape__Area":20122231.205627441,"Shape__Length":19549.543186907082}},{"type":"Feature","id":2,"geometry":{"type":"Polygon","coordinates":[[[-104.142433218676,51.2268470082038],[-104.326970661023,51.2265515602257],[-104.326555293079,51.3145549136036],[-104.199454354303,51.3138347024541],[-104.142301552289,51.3139205936667],[-104.142433218676,51.2268470082038]]]},"properties":{"FID":2,"Id":0,"UNIQUE_ID":"PRQA86","RSRVE_NO":"86","RSRVE_NAME":"Gordon","YEAR":"1900","Notes":"Survey boundaries incorrect in 1884, corrected in 1900","Shape__Area":123062628.97822571,"Shape__Length":44846.086028602214}},{"type":"Feature","id":3,"geometry":{"type":"Polygon","coordinates":[[[-103.587292636267,50.3968557144682],[-103.587404483884,50.3968555814116],[-103.58706648267,50.2803397377575],[-103.381218080392,50.2803708380593],[-103.381003441695,50.2221294325891],[-103.793634602366,50.2220051918464],[-103.794695222577,50.396731004979],[-103.587292636267,50.3968557144682]]]},"properties":{"FID":3,"Id":0,"UNIQUE_ID":"PRQA75","RSRVE_NO":"75/76","RSRVE_NAME":"Piapot/Carry the Kettle","YEAR":"1885","Notes":"Initial survey comprised of 3 bands including Piapot, majority deserted and resurveyed in 1885 for remaining population","Shape__Area":377789864.371788,"Shape__Length":97280.128630622843}},{"type":"Feature","id":4,"geometry":{"type":"MultiPolygon","coordinates":[[[[-104.176306971447,51.5379724972753],[-104.176353166049,51.4976914890262],[-104.199748415827,51.4977511377702],[-104.199496799626,51.5379736419982],[-104.19944266534,51.5379735103544],[-104.176306971447,51.5379724972753]]],[[[-104.270197305244,51.6101841586878],[-104.242548824408,51.6100403215676],[-104.242913078467,51.5382016857232],[-104.270557365373,51.5383749780731],[-104.26942303132,51.6101794121992],[-104.270197305244,51.6101841586878]]],[[[-104.270197305244,51.6101841586878],[-104.270383488405,51.5904341196018],[-104.336865827023,51.5905591703085],[-104.336657116927,51.6104992918311],[-104.33665784421,51.6104055290716],[-104.270197305244,51.6101841586878]]]]},"properties":{"FID":4,"Id":0,"UNIQUE_ID":"PRQA87","RSRVE_NO":"87","RSRVE_NAME":"Day Star","YEAR":"1876-1888","Notes":"Boundaries shifted/land exchanged depending on quality of land, seemingly approved by the band.","Shape__Area":31895605.380950928,"Shape__Length":45278.954499884981}},{"type":"Feature","id":5,"geometry":{"type":"Polygon","coordinates":[[[-101.860257326724,51.6687529045535],[-101.779393588631,51.6713375586309],[-101.78460051677,51.6245528469574],[-101.835585609934,51.6241266584887],[-101.835617307442,51.6275116773347],[-101.841539638018,51.6274694464092],[-101.841613622337,51.6388438392715],[-101.853359394199,51.6388198822943],[-101.853286783833,51.6536583656423],[-101.86024294927,51.6535841936273],[-101.860257326724,51.6687529045535]]]},"properties":{"FID":5,"Id":0,"UNIQUE_ID":"PRQA64","RSRVE_NO":"64","RSRVE_NAME":"Cote","YEAR":"1904-1907","Notes":"NE corner swapped for lands west of the river.","Shape__Area":24037299.481842041,"Shape__Length":20837.894569560118}},{"type":"Feature","id":6,"geometry":{"type":"MultiPolygon","coordinates":[[[[-102.654057238565,53.48174438209],[-102.654013728679,53.4745866396008],[-102.669079112446,53.4745852249581],[-102.669095805578,53.4815969423806],[-102.654057238565,53.48174438209]]],[[[-102.62927491407,53.5201240928397],[-102.629716219633,53.5128817233614],[-102.641696207233,53.5127117878811],[-102.641729282835,53.4975414789314],[-102.629768087954,53.4975681262895],[-102.629732474548,53.4830515807073],[-102.653814307098,53.4829965520012],[-102.653859137979,53.4975130863649],[-102.653863163056,53.5001708570026],[-102.654355255964,53.4993763566222],[-102.654817030687,53.4978796551604],[-102.656523038406,53.4967495498619],[-102.656766445281,53.5327966813507],[-102.63185227978,53.5325826850938],[-102.632320234204,53.5200763781727],[-102.62927491407,53.5201240928397]]]]},"properties":{"FID":6,"Id":0,"UNIQUE_ID":"PRLW28A","RSRVE_NO":"28A","RSRVE_NAME":"Shoal Lake","YEAR":"1906-1927","Notes":"Areas swapped and added 1906-1927","Shape__Area":8529763.62802124,"Shape__Length":20169.142384700022}},{"type":"Feature","id":7,"geometry":{"type":"MultiPolygon","coordinates":[[[[-103.901680669874,50.8054944385472],[-103.901802261248,50.8045201560505],[-103.912048878845,50.8045350342084],[-103.912156741506,50.8190512044764],[-103.910679235459,50.8190538163577],[-103.910604363801,50.8182966729325],[-103.908662192484,50.8169555939717],[-103.90836704805,50.8161096035183],[-103.902446266888,50.8093858325664],[-103.901680669874,50.8054944385472]]],[[[-103.920475566485,50.8338677893528],[-103.920974352429,50.8336485634111],[-103.946783028812,50.8337149519257],[-103.946850445452,50.8482137256277],[-103.929243272739,50.8482780575148],[-103.9285967653,50.847141105521],[-103.928545658996,50.8462494959333],[-103.928120013313,50.8460936227609],[-103.928099978502,50.8458145232577],[-103.929259580341,50.8450636171834],[-103.929204658515,50.8447058249896],[-103.928409455659,50.844455948589],[-103.929196429698,50.8438170725424],[-103.928990310129,50.8427988960237],[-103.928532955092,50.8423114750644],[-103.928153739581,50.8413221657308],[-103.926595587321,50.8410563136452],[-103.925879834257,50.8406952183068],[-103.925627169577,50.8391384408135],[-103.92407772009,50.838258694048],[-103.923564861979,50.8369761063488],[-103.922025118965,50.8363910567879],[-103.92185245332,50.8358770724878],[-103.921283876216,50.8356705492038],[-103.921194132111,50.8351638589551],[-103.920918620645,50.8348134848146],[-103.920475566485,50.8338677893528]]]]},"properties":{"FID":7,"Id":0,"UNIQUE_ID":"PRQA78","RSRVE_NO":"78","RSRVE_NAME":"Standing Buffalo","YEAR":"1902","Notes":"Addition","Shape__Area":3128243.4819488525,"Shape__Length":10853.400946361791}},{"type":"Feature","id":8,"geometry":{"type":"MultiPolygon","coordinates":[[[[-102.2325839017,49.8021532660665],[-102.232582069215,49.8063377227939],[-102.1643219124,49.8062254924099],[-102.164410876173,49.7993300358856],[-102.16614994588,49.7993541188933],[-102.16608429324,49.8008320854594],[-102.2325839017,49.8021532660665]]],[[[-102.33457425807,49.8040919822289],[-102.334496767844,49.8068100465807],[-102.254986740653,49.8065218736528],[-102.255085251024,49.802590105569],[-102.33457425807,49.8040919822289]]]]},"properties":{"FID":8,"Id":0,"UNIQUE_ID":"PRMP70","RSRVE_NO":"70","RSRVE_NAME":"White Bear","YEAR":"1902","Notes":"Additions","Shape__Area":4733954.2238273621,"Shape__Length":23341.991461582391}},{"type":"Feature","id":9,"geometry":{"type":"Polygon","coordinates":[[[-103.627274947152,52.4234944339909],[-103.62736774048,52.3899502321798],[-103.681881108416,52.3898295508566],[-103.700828089679,52.4234277986468],[-103.627274947152,52.4234944339909]]]},"properties":{"FID":9,"Id":0,"UNIQUE_ID":"PRQA90","RSRVE_NO":"90","RSRVE_NAME":"Nut Lake","YEAR":"1911","Notes":"Addition made","Shape__Area":15903532.39503479,"Shape__Length":16208.607398660446}},{"type":"Feature","id":10,"geometry":{"type":"Polygon","coordinates":[[[-104.28482210962,52.6311308887954],[-104.260853828473,52.6313828505301],[-104.260696704984,52.6018545295997],[-104.284858885453,52.6016588533257],[-104.28482210962,52.6311308887954]]]},"properties":{"FID":10,"Id":0,"UNIQUE_ID":"PRF91","RSRVE_NO":"91","RSRVE_NAME":"Kinistino","YEAR":"1912","Notes":"Surrendered for exchange for creation of 91A.","Shape__Area":5218483.0060119629,"Shape__Length":9703.5363246334582}},{"type":"Feature","id":11,"geometry":{"type":"MultiPolygon","coordinates":[[[[-106.064959624811,52.7132585454879],[-106.004330631116,52.7132686874641],[-106.00439238199,52.7060953936774],[-106.064901741702,52.7057718854036],[-106.064959624811,52.7132585454879]]],[[[-106.064959624811,52.7132585454879],[-106.077286862003,52.7133152608297],[-106.07684211228,52.7496628254705],[-106.06495884932,52.7496611765572],[-106.064959624811,52.7132585454879]]]]},"properties":{"FID":11,"Id":0,"UNIQUE_ID":"PRF95","RSRVE_NO":"95","RSRVE_NAME":"One Arrow","YEAR":"1888","Notes":"Inaccurate survey in 1881 left SW border overlapping St. Laurent Settlement, noticed in 1884 and resurveyed in 1888 to swap SW border with land to the south of the reserve. OIC confirmed reserve boundary in 1889.","Shape__Area":6480801.7991943359,"Shape__Length":19300.889381344903}},{"type":"Feature","id":12,"geometry":{"type":"MultiPolygon","coordinates":[[[[-104.906168115712,52.9498247471855],[-104.881703684485,52.9498531735771],[-104.881631220596,52.9292525496245],[-104.906181224181,52.929227784897],[-104.906168115712,52.9498247471855]]],[[[-104.771328744486,53.1502281602635],[-104.747235536594,53.1500298837749],[-104.747042080725,53.1284189710596],[-104.771402764164,53.1283475050855],[-104.771328744486,53.1502281602635]]]]},"properties":{"FID":12,"Id":0,"UNIQUE_ID":"PRF100A","RSRVE_NO":"100A","RSRVE_NAME":"Cumberland","YEAR":"1899","Notes":"SW corner exchanged for land in the NE corner","Shape__Area":7491029.6264038086,"Shape__Length":15744.252298112442}},{"type":"Feature","id":13,"geometry":{"type":"MultiPolygon","coordinates":[[[[-106.131980819572,53.4145840686492],[-106.095805419137,53.4144380030747],[-106.095822745251,53.4361303790979],[-106.07810966995,53.4361309272182],[-106.077599088047,53.4122815050704],[-106.083122998324,53.4064193327495],[-106.09567541554,53.4012196083888],[-106.09931526723,53.3995158157638],[-106.105298142401,53.3975648825247],[-106.107377733588,53.3954888348706],[-106.110067468169,53.3938435178518],[-106.113753904411,53.3939396542209],[-106.116689455099,53.3953923257431],[-106.11820118957,53.3968721920744],[-106.120692384987,53.3988909130118],[-106.124689881979,53.4031337203536],[-106.128290696569,53.4060324317897],[-106.131854603957,53.408326509944],[-106.131980819572,53.4145840686492]]],[[[-106.028533565272,53.4519595577353],[-105.986289830069,53.4519117352489],[-105.986444045761,53.4358576782701],[-106.028443917529,53.4359586335642],[-106.028533565272,53.4519595577353]]]]},"properties":{"FID":13,"Id":0,"UNIQUE_ID":"PRF101","RSRVE_NO":"101","RSRVE_NAME":"Sturgeon Lake","YEAR":"1913","Notes":"North central section exchanged for better hay lands in NE section","Shape__Area":12804468.299835205,"Shape__Length":23474.449225310498}},{"type":"Feature","id":14,"geometry":{"type":"Polygon","coordinates":[[[-104.270465168578,50.7854413590377],[-104.268964188358,50.7864543133875],[-104.268131661392,50.7856979141614],[-104.267351055397,50.7844287586012],[-104.265468933681,50.7858829683355],[-104.267369793833,50.786146535214],[-104.268715820135,50.7870814152581],[-104.267435593781,50.7880625218669],[-104.263412961422,50.7887653555919],[-104.261686438485,50.7892496109423],[-104.259239064379,50.7880471032494],[-104.257964134044,50.7886953944983],[-104.256548621425,50.7884250586333],[-104.256097901457,50.7893842153166],[-104.254694342533,50.7893394394578],[-104.253089739146,50.7884841395266],[-104.251709289174,50.7884665465686],[-104.25099698985,50.7895677272942],[-104.252006034597,50.7902855302315],[-104.247768334942,50.7900864988354],[-104.245212757893,50.7892610580797],[-104.244534528417,50.7894899991589],[-104.244082241644,50.7901170499339],[-104.243358650731,50.7907147277233],[-104.241989989675,50.7904545239222],[-104.24093005508,50.7895020791879],[-104.241248872577,50.7889827189317],[-104.242046369708,50.7886468466045],[-104.24105799433,50.7875966795749],[-104.237966819317,50.7884403945903],[-104.239759524352,50.7873277020888],[-104.237489347306,50.7862255745802],[-104.235660326395,50.7852781894275],[-104.233258715846,50.7880139529319],[-104.234289638022,50.7895763910699],[-104.234875882849,50.7916034605602],[-104.230916457328,50.7909654486862],[-104.229431069423,50.7906321415562],[-104.23015001259,50.792526323241],[-104.227456754444,50.7923102508365],[-104.225285687412,50.7909647805881],[-104.223936248882,50.7921014692126],[-104.223178181027,50.7863221073573],[-104.21691714503,50.7864303099069],[-104.217501038993,50.7844198082724],[-104.215221276192,50.784503353031],[-104.210424742378,50.7883589243193],[-104.211594988861,50.7899555716272],[-104.210644414413,50.791792733519],[-104.206265583213,50.7896582661659],[-104.205719126818,50.7885758386624],[-104.207561243991,50.7875729488351],[-104.205767132919,50.7863371995557],[-104.201582127519,50.7862105116164],[-104.196203198777,50.786361345263],[-104.196923502582,50.7901434144468],[-104.193532349183,50.7915946265135],[-104.190068128203,50.7901317014038],[-104.188807881368,50.7860133785581],[-104.186724726465,50.7842646528245],[-104.185021655028,50.7840719161521],[-104.18147549589,50.7866911003005],[-104.180275267885,50.7885713628397],[-104.175120519161,50.7890016264798],[-104.167916852876,50.7914145187603],[-104.165207770883,50.7871417584272],[-104.160283526381,50.7921333961619],[-104.147459214701,50.78743568909],[-104.138642223511,50.7907522190908],[-104.128376955574,50.7886624456967],[-104.121291834698,50.7853251709297],[-104.110174662853,50.7854721636609],[-104.110639658364,50.6802961815279],[-104.270382281755,50.681211266384],[-104.270465168578,50.7854413590377]]]},"properties":{"FID":14,"Id":0,"UNIQUE_ID":"PRQA80","RSRVE_NO":"80","RSRVE_NAME":"Muscowpetung","YEAR":"1881","Notes":"initial survey is a sketch, finalized survey a year later provided correct land allotment.","Shape__Area":133556443.87611389,"Shape__Length":53254.293635903392}},{"type":"Feature","id":15,"geometry":{"type":"Polygon","coordinates":[[[-109.72294705065,53.9767833986236],[-109.723192869299,54.0568398267802],[-109.549516026393,54.057146479338],[-109.549969206547,54.0351684281426],[-109.597678259825,54.0351516861924],[-109.597802833892,54.0362895933066],[-109.597371994632,54.0379851480739],[-109.597132093824,54.0390287991326],[-109.597647988784,54.0396075753822],[-109.598486737004,54.0396606855724],[-109.599468242884,54.040897343073],[-109.599873335998,54.0420207626597],[-109.600737468317,54.0411078161995],[-109.601208821648,54.0404413921277],[-109.602338833401,54.0398520753743],[-109.60246611247,54.039565161462],[-109.602982230768,54.0387056384287],[-109.603464258247,54.0380842065645],[-109.603835928755,54.03761673318],[-109.603834134671,54.0369104606095],[-109.60429525889,54.0365063775295],[-109.604921454919,54.0362751341338],[-109.605306412512,54.0359761471524],[-109.605318699374,54.0356022711633],[-109.604733847858,54.0353168650494],[-109.604296945708,54.0348912458091],[-109.603932684107,54.033611127202],[-109.604873319499,54.0330283044501],[-109.605793107665,54.0321822128162],[-109.606603788767,54.0320312265993],[-109.607559419502,54.0325403896827],[-109.608174885283,54.033204788293],[-109.607601991196,54.033459203706],[-109.607843618433,54.0336723660661],[-109.608311088813,54.0339930563846],[-109.609362951044,54.0339406918888],[-109.61080505267,54.0348048756031],[-109.611369196205,54.0349736401501],[-109.612284448334,54.0347090364596],[-109.613189351506,54.0342365210859],[-109.613077456054,54.0336757860398],[-109.611045438956,54.0324462091782],[-109.610841811574,54.0321970195592],[-109.611427259464,54.0319083400403],[-109.611063077867,54.0317661317241],[-109.60997906799,54.0318691488135],[-109.609229744936,54.0316950721563],[-109.608398606093,54.0315784562131],[-109.606999536939,54.0316786030037],[-109.606369422674,54.0316729141029],[-109.606339465866,54.0313998212131],[-109.605912632664,54.0311813457459],[-109.605812451466,54.030994921062],[-109.606444787678,54.0307030082239],[-109.606970182248,54.0304604587124],[-109.606952171729,54.0301758394858],[-109.607545591233,54.0299033731793],[-109.608040626127,54.0294253994147],[-109.609331972551,54.0287507697473],[-109.609647088497,54.0286712182531],[-109.610255392978,54.0286779135343],[-109.611997528054,54.0288498895353],[-109.613685703977,54.0285558417578],[-109.614642989807,54.028331614299],[-109.615608676189,54.0282602317714],[-109.616076103566,54.028036587546],[-109.616264462894,54.0279464648986],[-109.616695179186,54.0282954106038],[-109.617238086996,54.0288058854939],[-109.617467565616,54.0292517212029],[-109.617027942398,54.0295278900026],[-109.616493885571,54.029632244902],[-109.6170399982,54.0300190733486],[-109.619851601234,54.0304424291056],[-109.621666906116,54.0308315798329],[-109.623555690839,54.0318874182425],[-109.625883902537,54.0322810480372],[-109.628355144023,54.0323917019421],[-109.629832120653,54.0348203407551],[-109.631061681504,54.0363054094124],[-109.63310927507,54.0364743911651],[-109.634264271788,54.0379321301801],[-109.635652326884,54.0385304446882],[-109.636257097309,54.0383851884519],[-109.636675930814,54.0391850667088],[-109.63632652445,54.0398641445866],[-109.635559856241,54.0404627411559],[-109.635175228254,54.0409692290427],[-109.635661580382,54.0416020829593],[-109.636347485166,54.041852541763],[-109.637397417244,54.0416289130461],[-109.638564732906,54.040984910607],[-109.639364046161,54.040973262805],[-109.639961932626,54.0407922277522],[-109.640239408137,54.0405786566655],[-109.640870910745,54.0405091355171],[-109.641473722639,54.0407611645744],[-109.642053477869,54.0408290693624],[-109.643151223708,54.0410621122643],[-109.643466652772,54.040964811957],[-109.643537614557,54.0407548984506],[-109.643182301456,54.0405541718046],[-109.643202854497,54.0404739132781],[-109.643294954931,54.0404005062555],[-109.644040523687,54.0402730759999],[-109.64436715528,54.03965382728],[-109.644588947412,54.0395916830063],[-109.644780736876,54.0396156965876],[-109.644864096537,54.039825017426],[-109.645100025736,54.0399060339343],[-109.645377235489,54.0399561168458],[-109.64561458557,54.0398792045306],[-109.645865316754,54.0396750489641],[-109.646080394283,54.0396395384727],[-109.646244705913,54.0397420421732],[-109.646234053409,54.0399736730981],[-109.646620131875,54.0406674176508],[-109.64708028546,54.0411853884704],[-109.647270928755,54.0413367524185],[-109.647777587009,54.0414202830098],[-109.648482485568,54.041415886475],[-109.648849400872,54.0413208353278],[-109.649065491456,54.041036622899],[-109.649536362118,54.0409958685912],[-109.650247085119,54.0412127442831],[-109.650629609095,54.041466837997],[-109.650359821263,54.0425019824246],[-109.650155854358,54.043324388492],[-109.650729573234,54.0439431968432],[-109.651890450594,54.0454196456256],[-109.652721705213,54.0461713933995],[-109.654864849162,54.046212538225],[-109.655703354838,54.0466744445215],[-109.656916135596,54.0468439840499],[-109.657396860016,54.0467561640834],[-109.6570945605,54.0465021378775],[-109.656762275067,54.0463409796438],[-109.656675585616,54.0453670761299],[-109.656990171316,54.0446433924547],[-109.657604002516,54.0440131155239],[-109.658202310931,54.0437760594955],[-109.658463544712,54.0431287463113],[-109.659001770393,54.0427980962758],[-109.659364718456,54.0421958864271],[-109.659283117172,54.0416550676449],[-109.659699352939,54.0409764855219],[-109.659664050393,54.0408039041045],[-109.660292574456,54.0403704672587],[-109.660816805921,54.0396418656013],[-109.662181792538,54.0382634192009],[-109.662508029042,54.0373635056655],[-109.662392113829,54.0365476902356],[-109.661762686327,54.0357566048675],[-109.661324362943,54.034985333389],[-109.660231359457,54.0339502083029],[-109.659726028681,54.0331419862533],[-109.659109599062,54.0325801697085],[-109.658017398705,54.0322689134745],[-109.657072784327,54.0317370168836],[-109.655510323721,54.0307051049272],[-109.65382300697,54.0304760020001],[-109.653421606771,54.0307162694228],[-109.653270316323,54.0315843507431],[-109.652737221544,54.0321508671642],[-109.651726182463,54.032305856404],[-109.650546140384,54.0322993256835],[-109.64954124962,54.0322069910161],[-109.649070863566,54.0327340182324],[-109.648445131784,54.0337907929163],[-109.647631739774,54.0344421685484],[-109.646095109404,54.0348544677809],[-109.64595556352,54.0345040472788],[-109.645918694135,54.0337543796091],[-109.645724106241,54.0331342993304],[-109.645546965392,54.032558023402],[-109.645512827345,54.0319466111242],[-109.644782703415,54.0314928548321],[-109.644455230291,54.0309989382873],[-109.644591620625,54.0304872227192],[-109.644097533415,54.030231940907],[-109.643470151193,54.0303647188089],[-109.642929951789,54.0307165075113],[-109.642667604759,54.0305832731477],[-109.643275620302,54.0297446405656],[-109.644529193516,54.0292790054539],[-109.646150461797,54.0286855909774],[-109.6472238347,54.0287530871581],[-109.648703389081,54.0293806296534],[-109.650014008766,54.0298466429199],[-109.651398520785,54.0295784864355],[-109.65290029968,54.0288166138479],[-109.653144965097,54.0279202420361],[-109.653325322772,54.0271251707608],[-109.653093898357,54.0267412384178],[-109.651765572823,54.0264933660161],[-109.651447269924,54.0256285281331],[-109.652372378214,54.0249976161294],[-109.652220348282,54.0243511401133],[-109.652467747463,54.023593029624],[-109.654059563388,54.0229265042267],[-109.656000905417,54.0226121554284],[-109.656770769958,54.0227060535618],[-109.658330165127,54.0235996774709],[-109.66338187341,54.024262439526],[-109.666412614839,54.0256063964162],[-109.670188807654,54.0273173447549],[-109.673576869854,54.0275540348262],[-109.677943369351,54.029241927122],[-109.680312868517,54.030677099889],[-109.680862932803,54.0323052046604],[-109.679581963725,54.0345979718034],[-109.679620227381,54.0359442952418],[-109.681717723073,54.0369470169287],[-109.682791155787,54.0383852270846],[-109.680570538725,54.0385748679657],[-109.677904739789,54.0386497279297],[-109.677603228066,54.0403956413695],[-109.677657959153,54.0420335324619],[-109.677612365392,54.0439203698679],[-109.674839476771,54.0454790666427],[-109.672922462283,54.0486823650632],[-109.675120855061,54.049436309339],[-109.678026885375,54.0492108740252],[-109.680298802291,54.0478976826472],[-109.68122368246,54.0463583859175],[-109.68446929143,54.045087675749],[-109.683857817569,54.0430566073209],[-109.683591734536,54.0403900981177],[-109.68542867965,54.0394895098698],[-109.688072276168,54.0393587743432],[-109.690982853607,54.039896246595],[-109.692618997882,54.0404925383668],[-109.693726671453,54.0395164233083],[-109.694275152326,54.0383408071086],[-109.69181269684,54.0367253909358],[-109.690783458109,54.0353986544468],[-109.689965741637,54.03410141127],[-109.68895914677,54.0318312709108],[-109.687468149057,54.0310973724867],[-109.688137050882,54.0300748575441],[-109.690328646281,54.0287620852202],[-109.692070272292,54.0278745052119],[-109.694579537639,54.0274094907833],[-109.69532049802,54.0260888855318],[-109.692599221681,54.0254505647471],[-109.690485453649,54.0241565515203],[-109.687153645095,54.0225610219585],[-109.684483728389,54.0218728251825],[-109.682504233184,54.019913741725],[-109.680902721899,54.0189013344515],[-109.679267707243,54.0183048980789],[-109.676158437646,54.0182649843449],[-109.673945360971,54.0172195932528],[-109.672232445761,54.0169276606916],[-109.668763892916,54.0142342533306],[-109.670353317729,54.0131370601441],[-109.674431559923,54.0136853902647],[-109.681271974987,54.0143254455873],[-109.686082531607,54.0151286256248],[-109.691749515533,54.0175759812282],[-109.693634670477,54.0205470340436],[-109.695759345511,54.0233674050878],[-109.698296046032,54.0253590234912],[-109.698813431844,54.0257652026315],[-109.702251777834,54.0278746591146],[-109.706174075889,54.027448627512],[-109.706896300808,54.0252697818037],[-109.704204065233,54.0240191587572],[-109.701094357223,54.0249790270484],[-109.698296046032,54.0253590234912],[-109.699001326082,54.0239709861955],[-109.70156707885,54.0229153775115],[-109.704509732312,54.022037400716],[-109.706662460515,54.0216802246949],[-109.709293453067,54.0210216066355],[-109.709474551693,54.0204354984638],[-109.706895897682,54.0207663165795],[-109.704453856305,54.0203996066823],[-109.700593437399,54.020229409663],[-109.698385116327,54.0199477242579],[-109.699289433381,54.0191442301706],[-109.700948755352,54.018560520463],[-109.702967376587,54.0189066124692],[-109.705970205774,54.0188514465694],[-109.708403553086,54.0192121673243],[-109.709848066759,54.0193488807067],[-109.711759316535,54.0185060960803],[-109.715723060486,54.0173785428834],[-109.717611781892,54.0175016636059],[-109.719267480936,54.0164293694883],[-109.718426211176,54.0152461771898],[-109.717042859394,54.0141382086094],[-109.714902211972,54.011839539791],[-109.712693536477,54.0095600950099],[-109.7096121334,54.0073429431583],[-109.704679771434,54.0067340872122],[-109.701838232373,54.0053650600093],[-109.698140653889,54.0033506980121],[-109.695244165214,54.000343795697],[-109.692203580924,53.9974743967369],[-109.690208361295,53.9952240668585],[-109.688674626603,53.9933799018889],[-109.688291844087,53.9906711511637],[-109.687586563311,53.9886534774374],[-109.685903043,53.9871826734352],[-109.683141601479,53.9855086287416],[-109.67915735072,53.9847677620734],[-109.677485150915,53.9838241625698],[-109.676156141674,53.9852420915868],[-109.671992402161,53.9870523786913],[-109.672013878318,53.9881070346429],[-109.669756002111,53.9899471834491],[-109.666197920413,53.9910270295872],[-109.664479576079,53.9919697963656],[-109.661021454329,53.9928005814763],[-109.658941222817,53.9940870506059],[-109.656788507846,53.9954422386599],[-109.654892356899,53.9959393419274],[-109.653423203554,53.9972587161428],[-109.650697093618,53.9989279910193],[-109.649150542297,53.9990374393838],[-109.64927445376,53.9769498941194],[-109.72294705065,53.9767833986236]]]},"properties":{"FID":15,"Id":0,"UNIQUE_ID":"PRF161","RSRVE_NO":"161","RSRVE_NAME":"Ministikwan Lake","YEAR":"1914","Notes":"initial survey in 1910 suggested one reserve. as early as 1912 it was being referred to as having two locations, 161 and 161A. resurveyed in 1914. no loss in acreage.","Shape__Area":42035556.097717285,"Shape__Length":72346.450606481347}},{"type":"Feature","id":16,"geometry":{"type":"Polygon","coordinates":[[[-109.72754279075,54.1219495634915],[-109.802089299983,54.1217881196467],[-109.802035748503,54.1463376326746],[-109.801426677148,54.1463023258991],[-109.800363440991,54.1464656702559],[-109.799398354079,54.1466770134436],[-109.798645845369,54.1465042012436],[-109.798050414139,54.1465253630566],[-109.796348500136,54.1464075155646],[-109.794888086442,54.1468881149007],[-109.793429584784,54.14698302417],[-109.79228385066,54.1475277362115],[-109.790865872111,54.1480486170715],[-109.789686689189,54.1487058537451],[-109.788352434045,54.1487834116732],[-109.786788571285,54.1482916535836],[-109.786453626295,54.147721579982],[-109.785684106509,54.1477668655393],[-109.78465739892,54.1479557940806],[-109.784059165661,54.1486863781183],[-109.783614080376,54.1492106898369],[-109.7836826633,54.1497715355936],[-109.782486379084,54.1500610759206],[-109.781460338183,54.1499261478233],[-109.781497721531,54.1496280610137],[-109.78067329157,54.1493417959859],[-109.779709541162,54.1489053118711],[-109.779059004834,54.1491806615168],[-109.777647996518,54.1496541231887],[-109.776374095489,54.1492298593127],[-109.777156703789,54.150094701964],[-109.779010549335,54.151145133752],[-109.781559895281,54.1519317430593],[-109.785648157167,54.1521678332093],[-109.787230910236,54.1521661024878],[-109.787874906096,54.1522948238575],[-109.788814707239,54.1526373803725],[-109.790281937903,54.1533712242999],[-109.791041067481,54.1544064934357],[-109.791986765737,54.1551229229466],[-109.793497964864,54.1554832386247],[-109.795122437147,54.1560590349006],[-109.79629997221,54.1569590440461],[-109.797760335084,54.1579738859474],[-109.800125237126,54.1584312526277],[-109.801214042537,54.1585437511391],[-109.802217787571,54.1587396072238],[-109.802536092833,54.1801427683283],[-109.727297893464,54.179953693719],[-109.72754279075,54.1219495634915]]]},"properties":{"FID":16,"Id":0,"UNIQUE_ID":"PRF161A","RSRVE_NO":"161A","RSRVE_NAME":"MInistikwan Lake","YEAR":"1914","Notes":"see PRF161","Shape__Area":29486317.77154541,"Shape__Length":25136.705887155891}},{"type":"Feature","id":17,"geometry":{"type":"Polygon","coordinates":[[[-102.906038375119,53.4141710751835],[-102.905928982674,53.4340191108248],[-102.884609916393,53.4340036131991],[-102.884574276897,53.4665638303123],[-102.857485523115,53.4665266883164],[-102.857442589474,53.4619227385254],[-102.83477043832,53.461928105311],[-102.834922274872,53.4473900788235],[-102.857638383182,53.4473794151627],[-102.857674589327,53.4339056447591],[-102.869832193471,53.4339759991202],[-102.869609873669,53.4140097635676],[-102.906038375119,53.4141710751835]]]},"properties":{"FID":17,"Id":0,"UNIQUE_ID":"PRLW29","RSRVE_NO":"29","RSRVE_NAME":"Red Earth","YEAR":"1885","Notes":"Resurveyed.","Shape__Area":13868055.763763428,"Shape__Length":20832.498753438846}},{"type":"Feature","id":18,"geometry":{"type":"MultiPolygon","coordinates":[[[[-104.166211011181,51.2988352343103],[-104.142336483159,51.2988061438364],[-104.142433218676,51.2268470082038],[-104.16613827392,51.2268278734779],[-104.166211011181,51.2988352343103]]],[[[-104.326555293079,51.3145549136036],[-104.326696162129,51.2847500299308],[-104.338294652525,51.2847100622846],[-104.338687356811,51.270207008351],[-104.326798181905,51.2702085773022],[-104.326970661023,51.2265515602257],[-104.16613827392,51.2268278734779],[-104.166280994659,51.2123820976059],[-104.350598494313,51.2120036841979],[-104.350443893603,51.3145689687244],[-104.326555293079,51.3145549136036]]]]},"properties":{"FID":18,"Id":0,"UNIQUE_ID":"PRQA86","RSRVE_NO":"86","RSRVE_NAME":"George Gordon","YEAR":"1899","Notes":"East boundary of the reserve 1 mile wide and 6 miles long surrendered for exchange for this portion minus east half of section 4 twp 27 rng 17 W3","Shape__Area":48141295.51373291,"Shape__Length":68997.427385732692}},{"type":"Feature","id":19,"geometry":{"type":"Polygon","coordinates":[[[-107.627355388497,53.4459924807962],[-107.627794753675,53.5253725514881],[-107.615085362307,53.5254403415922],[-107.615141430635,53.5185114769858],[-107.602824772983,53.518534485151],[-107.602771639688,53.5111526185551],[-107.590256812424,53.5110908154069],[-107.590362659298,53.5046700383872],[-107.582609241553,53.504592359424],[-107.582288879415,53.5033487909984],[-107.58286511089,53.5025867150054],[-107.585867225228,53.5019630660003],[-107.587201784807,53.500006390334],[-107.588020065999,53.4994240836826],[-107.587967846992,53.4984401818566],[-107.588669405275,53.4982056398059],[-107.588366869199,53.4978140153077],[-107.587534088913,53.4975079941131],[-107.587148208117,53.4963605011485],[-107.587948968595,53.4950213906729],[-107.588208010172,53.4937451605132],[-107.588551150649,53.4935596033603],[-107.589032479502,53.4932433754674],[-107.589252833188,53.4929416692081],[-107.589219832494,53.4921362445258],[-107.589843247438,53.4912856878969],[-107.589908749156,53.4908179307955],[-107.589676070804,53.4906372810919],[-107.589683422192,53.4902331128166],[-107.590113023179,53.4900109790125],[-107.590684221742,53.4893667180385],[-107.592684234943,53.4881725549035],[-107.594929681508,53.4862805419635],[-107.597500203893,53.483846536138],[-107.59928971384,53.4820411644203],[-107.599736921793,53.4812163657015],[-107.600390219942,53.4804493262416],[-107.601099879317,53.478648093782],[-107.601757039303,53.476462989808],[-107.602110401397,53.4761091590625],[-107.602484476037,53.4753014218062],[-107.602590675969,53.4701478248825],[-107.602006538634,53.4693722858484],[-107.600884906347,53.4686933488819],[-107.600650752224,53.4680895066497],[-107.600584738092,53.4673683130598],[-107.60079498334,53.4667370109125],[-107.601206209277,53.4660860570667],[-107.601646929136,53.4650820553514],[-107.601931541207,53.4646719014655],[-107.602599919217,53.4633530471319],[-107.603278694055,53.4612719802344],[-107.603676861902,53.4591462177504],[-107.603894287614,53.4562292556905],[-107.603982455391,53.456115418102],[-107.604149852123,53.453951219684],[-107.604990072178,53.4520814335694],[-107.604969625843,53.4514945210123],[-107.605078977859,53.4503188339639],[-107.605229318514,53.4497743457955],[-107.60551523434,53.4492783453919],[-107.605970087618,53.4486722499046],[-107.606267889303,53.4483327243164],[-107.606384156383,53.447407757897],[-107.606269328495,53.4461153441723],[-107.627355388497,53.4459924807962]]]},"properties":{"FID":19,"Id":0,"UNIQUE_ID":"PRF117","RSRVE_NO":"117","RSRVE_NAME":"Witchekan Lake","YEAR":"1919","Notes":"Reduction in reserve size.","Shape__Area":16112525.458953857,"Shape__Length":22352.765648267276}},{"type":"Feature","id":20,"geometry":{"type":"MultiPolygon","coordinates":[[[[-106.689264495748,51.8816392373133],[-106.689191711535,51.8381687463523],[-106.712441092468,51.8382301614107],[-106.712561842224,51.8527416411077],[-106.724158089617,51.8527928042208],[-106.724017712788,51.8673034498951],[-106.712682440798,51.8672247653888],[-106.712804009963,51.8818143888671],[-106.712634616908,51.8961589854013],[-106.689165421073,51.8962464061234],[-106.689264495748,51.8816392373133]]],[[[-106.747919337216,51.9179995863853],[-106.747848324879,51.9044317441073],[-106.751634195771,51.9058630843169],[-106.755652703921,51.9076994648867],[-106.758931879319,51.9094228921693],[-106.762920738944,51.9103103518011],[-106.765696621214,51.9124886078627],[-106.76944468559,51.9155461828507],[-106.770350035214,51.9179012459147],[-106.761230294887,51.9180836272074],[-106.747919337216,51.9179995863853]]]]},"properties":{"FID":20,"Id":0,"UNIQUE_ID":"PRF94","RSRVE_NO":"94","RSRVE_NAME":"Whitecap","YEAR":"1893-1941","Notes":"Additions to the reserve took place between 1893 and 1941 as confirmed by Orders-in-Council","Shape__Area":12887062.750732422,"Shape__Length":22770.185080917909}}]}